{
  "type": "FeatureCollection",
  "features": [
    {
      "type": "Feature",
      "geometry": {
        "type": "Point",
        "coordinates": [
          139.7043706,
          35.7355486
        ]
      },
      "properties": {
        "id": "fumi-184",
        "name": "みらい館大明",
        "category": "PV&ジャケット写真",
        "subcategory": "PV&ジャケット写真",
        "categoryColor": "#e11d48",
        "address": "",
        "sceneTitle": "みらい館大明",
        "sceneNote": "説明: けやき坂46「けやき十二人一首」特典映像撮影場所 http://blog.livedoor.jp/fumichen2/archives/48964649.html 住所: 〒171-0014 東京都豊島区池袋3-30−8",
        "sourceLabel": "fumi Diary 2号店 (けやき坂46)",
        "sourceUrl": "http://blog.livedoor.jp/fumichen2/",
        "tags": [
          "けやき坂46",
          "日向坂46"
        ],
        "images": [
          "https://pub-6d7574c4452b41519ab8adf1541d7f9e.r2.dev/seichi/keyakizaka/3AAjQbR4jgkKdcNzKAs8Zr5fuZBaBjpeM299lWRF_ae0923e1.png"
        ],
        "members": []
      }
    },
    {
      "type": "Feature",
      "geometry": {
        "type": "Point",
        "coordinates": [
          139.0958874,
          35.0445062
        ]
      },
      "properties": {
        "id": "fumi-205",
        "name": "旧網代中学校",
        "category": "PV&ジャケット写真",
        "subcategory": "PV&ジャケット写真",
        "categoryColor": "#e11d48",
        "address": "",
        "sceneTitle": "旧網代中学校",
        "sceneNote": "説明: けやき坂46「僕たちは付き合っている」PV撮影場所 http://blog.livedoor.jp/fumichen2/archives/49782142.html 住所: 〒413-0103 静岡県熱海市網代536",
        "sourceLabel": "fumi Diary 2号店 (けやき坂46)",
        "sourceUrl": "http://blog.livedoor.jp/fumichen2/",
        "tags": [
          "けやき坂46",
          "日向坂46"
        ],
        "images": [
          "https://pub-6d7574c4452b41519ab8adf1541d7f9e.r2.dev/seichi/keyakizaka/3AAjQbR437jqSNhtFaNKqI71i71enWPVLNWUhHXa_f151c3b0.png",
          "https://pub-6d7574c4452b41519ab8adf1541d7f9e.r2.dev/seichi/keyakizaka/3AAjQbR5jT1S_YoI4Z9OQkWRTfo7FoIKRIIBKskK_fb6142a7.png"
        ],
        "members": []
      }
    },
    {
      "type": "Feature",
      "geometry": {
        "type": "Point",
        "coordinates": [
          139.728767,
          35.659166
        ]
      },
      "properties": {
        "id": "fumi-233",
        "name": "六本木けやき坂通り",
        "category": "PV&ジャケット写真",
        "subcategory": "PV&ジャケット写真",
        "categoryColor": "#e11d48",
        "address": "",
        "sceneTitle": "六本木けやき坂通り",
        "sceneNote": "説明: けやき坂46 高瀬愛奈、東村芽依「上京けやきストーリー」ペアPV撮影場所 http://blog.livedoor.jp/fumichen2/archives/49792592.html 住所: 〒106-0032 東京都港区六本木6-12-2",
        "sourceLabel": "fumi Diary 2号店 (けやき坂46)",
        "sourceUrl": "http://blog.livedoor.jp/fumichen2/",
        "tags": [
          "けやき坂46",
          "日向坂46"
        ],
        "images": [
          "https://pub-6d7574c4452b41519ab8adf1541d7f9e.r2.dev/seichi/keyakizaka/3AAjQbR6rl7A4Y64YBpiuYC7I57eEFCxgvJN0NGG_7ca70793.png"
        ],
        "members": []
      }
    },
    {
      "type": "Feature",
      "geometry": {
        "type": "Point",
        "coordinates": [
          139.73235,
          35.659229
        ]
      },
      "properties": {
        "id": "fumi-234",
        "name": "EXけやき坂ビルR棟",
        "category": "PV&ジャケット写真",
        "subcategory": "PV&ジャケット写真",
        "categoryColor": "#e11d48",
        "address": "",
        "sceneTitle": "EXけやき坂ビルR棟",
        "sceneNote": "説明: けやき坂46 高瀬愛奈、東村芽依「上京けやきストーリー」ペアPV撮影場所 http://blog.livedoor.jp/fumichen2/archives/49792592.html 住所: 〒106-0032 東京都港区六本木5-10-25",
        "sourceLabel": "fumi Diary 2号店 (けやき坂46)",
        "sourceUrl": "http://blog.livedoor.jp/fumichen2/",
        "tags": [
          "けやき坂46",
          "日向坂46"
        ],
        "images": [
          "https://pub-6d7574c4452b41519ab8adf1541d7f9e.r2.dev/seichi/keyakizaka/3AAjQbR4TxnHoIA1K8drGAWcVyks4GqYoMSVQgt2_e9dd74f1.png"
        ],
        "members": []
      }
    },
    {
      "type": "Feature",
      "geometry": {
        "type": "Point",
        "coordinates": [
          139.3385214,
          35.7061378
        ]
      },
      "properties": {
        "id": "fumi-235",
        "name": "旧昭島市立拝島第四小学校",
        "category": "PV&ジャケット写真",
        "subcategory": "PV&ジャケット写真",
        "categoryColor": "#e11d48",
        "address": "",
        "sceneTitle": "旧昭島市立拝島第四小学校",
        "sceneNote": "説明: けやき坂46 齊藤京子、高本彩花「アフレコ職人ず 齊藤＆高本」ペアPV撮影場所 http://blog.livedoor.jp/fumichen2/archives/49794617.html 住所: 〒196-0002 東京都昭島市拝島町5-6-30",
        "sourceLabel": "fumi Diary 2号店 (けやき坂46)",
        "sourceUrl": "http://blog.livedoor.jp/fumichen2/",
        "tags": [
          "けやき坂46",
          "日向坂46"
        ],
        "images": [
          "https://pub-6d7574c4452b41519ab8adf1541d7f9e.r2.dev/seichi/keyakizaka/3AAjQbR75ueMl1w5A8kOXS50ppANmUSb4zhMlLB4_87698ec5.png",
          "https://pub-6d7574c4452b41519ab8adf1541d7f9e.r2.dev/seichi/keyakizaka/3AAjQbR7ohGRY2PTxqSRz0L7gYGAIIumDecyxA2u_e7119756.png"
        ],
        "members": []
      }
    },
    {
      "type": "Feature",
      "geometry": {
        "type": "Point",
        "coordinates": [
          139.650211,
          35.594934
        ]
      },
      "properties": {
        "id": "fumi-236",
        "name": "多摩川玉川公園",
        "category": "PV&ジャケット写真",
        "subcategory": "PV&ジャケット写真",
        "categoryColor": "#e11d48",
        "address": "",
        "sceneTitle": "多摩川玉川公園",
        "sceneNote": "説明: けやき坂46 井口眞緒、影山優佳「ドーナツの変」ペアPV撮影場所 http://blog.livedoor.jp/fumichen2/archives/49814868.html 住所: 〒158-0087 東京都世田谷区玉堤1丁目先",
        "sourceLabel": "fumi Diary 2号店 (けやき坂46)",
        "sourceUrl": "http://blog.livedoor.jp/fumichen2/",
        "tags": [
          "けやき坂46",
          "日向坂46"
        ],
        "images": [
          "https://pub-6d7574c4452b41519ab8adf1541d7f9e.r2.dev/seichi/keyakizaka/3AAjQbR406qC8S9zwb_n5XSyxRiywFF5v7OCHSQJ_b932c3a3.png",
          "https://pub-6d7574c4452b41519ab8adf1541d7f9e.r2.dev/seichi/keyakizaka/3AAjQbR5DmbfottYGSmJ2y3iQ6DbkgJ4S_zqUEax_45c2033b.png"
        ],
        "members": []
      }
    },
    {
      "type": "Feature",
      "geometry": {
        "type": "Point",
        "coordinates": [
          139.9906549,
          35.3335952
        ]
      },
      "properties": {
        "id": "fumi-268",
        "name": "かずさアカデミアホール",
        "category": "PV&ジャケット写真",
        "subcategory": "PV&ジャケット写真",
        "categoryColor": "#e11d48",
        "address": "",
        "sceneTitle": "かずさアカデミアホール",
        "sceneNote": "説明: けやき坂46「イマニミテイロ」PV撮影場所 http://blog.livedoor.jp/fumichen2/archives/51623135.html 住所: 〒292-0818 千葉県木更津市かずさ鎌足2-3-9",
        "sourceLabel": "fumi Diary 2号店 (けやき坂46)",
        "sourceUrl": "http://blog.livedoor.jp/fumichen2/",
        "tags": [
          "けやき坂46",
          "日向坂46"
        ],
        "images": [
          "https://pub-6d7574c4452b41519ab8adf1541d7f9e.r2.dev/seichi/keyakizaka/3AAjQbR5cbGmC80yn8Oqgi38_1IJb2HSsWNpGJ3X_43c84391.png",
          "https://pub-6d7574c4452b41519ab8adf1541d7f9e.r2.dev/seichi/keyakizaka/3AAjQbR4wKXGiE8sKTQpMJmsAAh05YVSg2HTCJwV_e471e383.png"
        ],
        "members": []
      }
    },
    {
      "type": "Feature",
      "geometry": {
        "type": "Point",
        "coordinates": [
          139.337976,
          35.654359
        ]
      },
      "properties": {
        "id": "fumi-269",
        "name": "オリンパスホール八王子",
        "category": "PV&ジャケット写真",
        "subcategory": "PV&ジャケット写真",
        "categoryColor": "#e11d48",
        "address": "",
        "sceneTitle": "オリンパスホール八王子",
        "sceneNote": "説明: けやき坂46「イマニミテイロ」PV撮影場所 http://blog.livedoor.jp/fumichen2/archives/51623135.html 住所: 〒192-0904 東京都八王子市子安町4-7-1 サザンスカイタワー八王子 4F",
        "sourceLabel": "fumi Diary 2号店 (けやき坂46)",
        "sourceUrl": "http://blog.livedoor.jp/fumichen2/",
        "tags": [
          "けやき坂46",
          "日向坂46"
        ],
        "images": [
          "https://pub-6d7574c4452b41519ab8adf1541d7f9e.r2.dev/seichi/keyakizaka/3AAjQbR6ECYXIOwAskZd2yvUBO_B9z7bfSmfTtdb_ee8384f4.png",
          "https://pub-6d7574c4452b41519ab8adf1541d7f9e.r2.dev/seichi/keyakizaka/3AAjQbR7Xz38JuiGMAKeh05RvwlRxBHhetKD8mBC_2288164e.png"
        ],
        "members": []
      }
    },
    {
      "type": "Feature",
      "geometry": {
        "type": "Point",
        "coordinates": [
          139.3537121,
          35.7058242
        ]
      },
      "properties": {
        "id": "fumi-270",
        "name": "昭島市役所",
        "category": "PV&ジャケット写真",
        "subcategory": "PV&ジャケット写真",
        "categoryColor": "#e11d48",
        "address": "",
        "sceneTitle": "昭島市役所",
        "sceneNote": "説明: けやき坂46「イマニミテイロ」PV撮影場所 http://blog.livedoor.jp/fumichen2/archives/51623135.html 住所: 〒196-8511 東京都昭島市田中町1-17-1",
        "sourceLabel": "fumi Diary 2号店 (けやき坂46)",
        "sourceUrl": "http://blog.livedoor.jp/fumichen2/",
        "tags": [
          "けやき坂46",
          "日向坂46"
        ],
        "images": [
          "https://pub-6d7574c4452b41519ab8adf1541d7f9e.r2.dev/seichi/keyakizaka/3AAjQbR6p5rlGNDK0fF_k1CBLRO8XZdn9fNrrSSu_1f05dd13.png"
        ],
        "members": []
      }
    },
    {
      "type": "Feature",
      "geometry": {
        "type": "Point",
        "coordinates": [
          139.7227183,
          35.6123935
        ]
      },
      "properties": {
        "id": "fumi-690",
        "name": "パイプライン戸越スタジオ",
        "category": "雑誌",
        "subcategory": "雑誌",
        "categoryColor": "#7c3aed",
        "address": "",
        "sceneTitle": "パイプライン戸越スタジオ",
        "sceneNote": "説明: けやき坂46 BLT 2016年10月号写真撮影場所 http://blog.livedoor.jp/fumichen2/archives/48306137.html 欅坂46 菅井友香 Gザテレビジョン vol.47 写真撮影場所 http://blog.livedoor.jp/fumichen2/archives/48415190.html 欅坂46 菅井友香、渡辺梨加 EX大衆 2017年8月号写真撮影場所 http://blog.livedoor.jp/fumichen2/archives/50412995.html 欅坂46 平手友梨奈 週刊少年チャンピオン 2017 No.32 写真撮影場所 http://blog.livedoor.jp/fumichen2/archives/50392621.html 欅坂46 守屋茜、志田愛佳、菅井友香、渡邉理佐、渡辺梨加 週刊少年マガジン 2018 No.18写真撮影場所 http://blog.livedoor.jp/fumichen2/archives/51791417.html 住所: 〒142-0042 東京都品川区豊町1-12-15",
        "sourceLabel": "fumi Diary 2号店 (けやき坂46)",
        "sourceUrl": "http://blog.livedoor.jp/fumichen2/",
        "tags": [
          "けやき坂46",
          "日向坂46"
        ],
        "images": [
          "https://lh3.googleusercontent.com/umsh/AN6v0v4o-QQOlCYy36kXk3uMdXJVwzkep4QuMupzL0T7zcGOTO3mL6qfywzaJRIC45W-H-e4Mq-NIMTZ9sX3eHSstaETljDdCpQZJrQyowQi94FJwnveHfRsM0puF_F-kA",
          "https://lh3.googleusercontent.com/umsh/AN6v0v6_uW-xb5ZhzrFfEyfoAtufmrFeQ21aT-pmdKsTUbcwy1GtBIV2GGNsqAaEgF3DUOxBI-G7tJADyTK0rVqrMqlqoFoeqW3axEIucSLzhWastQ--VLJakSZG1B7LJw",
          "https://pub-6d7574c4452b41519ab8adf1541d7f9e.r2.dev/seichi/keyakizaka/3AAjQbR7S5IJZv-8ADt6huL2Wf7Ybt4LWkZOANV8_7b294b33.png",
          "https://pub-6d7574c4452b41519ab8adf1541d7f9e.r2.dev/seichi/keyakizaka/3AAjQbR7xQXNBiPyPahh0JiclHp7TNXHYSyk2SAU_1af6c08b.png",
          "https://pub-6d7574c4452b41519ab8adf1541d7f9e.r2.dev/seichi/keyakizaka/3AAjQbR45OYD_ECkEgxvZ37c2XJhjX0d_fW3QosH_bc3e02ac.png"
        ],
        "members": []
      }
    },
    {
      "type": "Feature",
      "geometry": {
        "type": "Point",
        "coordinates": [
          139.7233137,
          35.7141155
        ]
      },
      "properties": {
        "id": "fumi-728",
        "name": "和敬塾本館 (旧細川侯爵邸)",
        "category": "雑誌",
        "subcategory": "雑誌",
        "categoryColor": "#7c3aed",
        "address": "",
        "sceneTitle": "和敬塾本館 (旧細川侯爵邸)",
        "sceneNote": "説明: けやき坂46 加藤史帆、長濱ねる、佐々木美玲 UTB+ vol.34 写真撮影場所 http://blog.livedoor.jp/fumichen2/archives/48672807.html 住所: 〒112-8682 東京都文京区目白台1-21-2",
        "sourceLabel": "fumi Diary 2号店 (けやき坂46)",
        "sourceUrl": "http://blog.livedoor.jp/fumichen2/",
        "tags": [
          "けやき坂46",
          "日向坂46"
        ],
        "images": [
          "https://pub-6d7574c4452b41519ab8adf1541d7f9e.r2.dev/seichi/keyakizaka/3AAjQbR4VHdFGnC7hMDxh9cI9WybqYzdxom9cvmH_5c6b2813.png",
          "https://pub-6d7574c4452b41519ab8adf1541d7f9e.r2.dev/seichi/keyakizaka/3AAjQbR7PHcZQhOH5YQH7OuTcry3WkuljjE3vArp_8d1fdff2.png"
        ],
        "members": []
      }
    },
    {
      "type": "Feature",
      "geometry": {
        "type": "Point",
        "coordinates": [
          139.7215448,
          35.6834828
        ]
      },
      "properties": {
        "id": "fumi-749",
        "name": "maison de blanc",
        "category": "雑誌",
        "subcategory": "雑誌",
        "categoryColor": "#7c3aed",
        "address": "",
        "sceneTitle": "maison de blanc",
        "sceneNote": "説明: けやき坂46 長濱ねる、潮紗理菜、影山優佳、佐々木美玲 Top Yell NEO 2016～2017 写真撮影場所 http://blog.livedoor.jp/fumichen2/archives/49511180.html 住所: 〒160-0016 東京都新宿区信濃町18",
        "sourceLabel": "fumi Diary 2号店 (けやき坂46)",
        "sourceUrl": "http://blog.livedoor.jp/fumichen2/",
        "tags": [
          "けやき坂46",
          "日向坂46"
        ],
        "images": [
          "https://pub-6d7574c4452b41519ab8adf1541d7f9e.r2.dev/seichi/keyakizaka/3AAjQbR4y4x7MYfGSgL3P2g0nFDOVTSvgJogfNoI_82a8cdaa.png",
          "https://pub-6d7574c4452b41519ab8adf1541d7f9e.r2.dev/seichi/keyakizaka/3AAjQbR6HwxxKgDG--VNe9Pad2FC6lEwjHGBS51A_a1581746.png"
        ],
        "members": []
      }
    },
    {
      "type": "Feature",
      "geometry": {
        "type": "Point",
        "coordinates": [
          139.647658,
          35.437433
        ]
      },
      "properties": {
        "id": "fumi-806",
        "name": "BB Studio YOKOHAMA HILL (山手46番館、旧アイリン・ヴェロス邸)",
        "category": "雑誌",
        "subcategory": "雑誌",
        "categoryColor": "#7c3aed",
        "address": "",
        "sceneTitle": "BB Studio YOKOHAMA HILL (山手46番館、旧アイリン・ヴェロス邸)",
        "sceneNote": "説明: けやき坂46 佐々木久美 IDOL AND READ #011 写真撮影場所 http://blog.livedoor.jp/fumichen2/archives/50224150.html 住所: 〒231-0862 神奈川県横浜市中区山手町46-1",
        "sourceLabel": "fumi Diary 2号店 (けやき坂46)",
        "sourceUrl": "http://blog.livedoor.jp/fumichen2/",
        "tags": [
          "けやき坂46",
          "日向坂46"
        ],
        "images": [
          "https://pub-6d7574c4452b41519ab8adf1541d7f9e.r2.dev/seichi/keyakizaka/3AAjQbR409P5_ss86Igoimhi99bHZRLSAg8jmwWh_5dacbefa.png",
          "https://pub-6d7574c4452b41519ab8adf1541d7f9e.r2.dev/seichi/keyakizaka/3AAjQbR4hnzF_eOD8w2PuntB_o6EcWMxKT3Aonyh_d2b8c835.png"
        ],
        "members": []
      }
    },
    {
      "type": "Feature",
      "geometry": {
        "type": "Point",
        "coordinates": [
          139.760715,
          35.698026
        ]
      },
      "properties": {
        "id": "fumi-829",
        "name": "錦華坂",
        "category": "雑誌",
        "subcategory": "雑誌",
        "categoryColor": "#7c3aed",
        "address": "",
        "sceneTitle": "錦華坂",
        "sceneNote": "説明: けやき坂46 柿崎芽実 FRESH BIG ONE GIRLS 2017年7月号写真撮影場所 http://blog.livedoor.jp/fumichen2/archives/50328712.html 住所: 〒101-0064 東京都千代田区猿楽町1丁目1",
        "sourceLabel": "fumi Diary 2号店 (けやき坂46)",
        "sourceUrl": "http://blog.livedoor.jp/fumichen2/",
        "tags": [
          "けやき坂46",
          "日向坂46"
        ],
        "images": [
          "https://pub-6d7574c4452b41519ab8adf1541d7f9e.r2.dev/seichi/keyakizaka/3AAjQbR7HhTBxeqIyeThZMxS1VKOFXGVmZ4tuPPu_733834d2.png"
        ],
        "members": []
      }
    },
    {
      "type": "Feature",
      "geometry": {
        "type": "Point",
        "coordinates": [
          139.5440631,
          35.7297189
        ]
      },
      "properties": {
        "id": "fumi-878",
        "name": "田無神社",
        "category": "雑誌",
        "subcategory": "雑誌",
        "categoryColor": "#7c3aed",
        "address": "",
        "sceneTitle": "田無神社",
        "sceneNote": "説明: けやき坂46 長濱ねる BRODY 2016年12月号写真撮影場所 http://blog.livedoor.jp/fumichen2/archives/51395193.html 住所: 〒188-0011 東京都西東京市田無町3-7-4",
        "sourceLabel": "fumi Diary 2号店 (けやき坂46)",
        "sourceUrl": "http://blog.livedoor.jp/fumichen2/",
        "tags": [
          "けやき坂46",
          "日向坂46"
        ],
        "images": [
          "https://pub-6d7574c4452b41519ab8adf1541d7f9e.r2.dev/seichi/keyakizaka/3AAjQbR5h9GN657p9L4BCkzR5Dcqt-t7KYZRsp77_6cab80ff.png"
        ],
        "members": []
      }
    },
    {
      "type": "Feature",
      "geometry": {
        "type": "Point",
        "coordinates": [
          174.762273,
          -36.846342
        ]
      },
      "properties": {
        "id": "fumi-902",
        "name": "信号機",
        "category": "雑誌",
        "subcategory": "雑誌",
        "categoryColor": "#7c3aed",
        "address": "",
        "sceneTitle": "信号機",
        "sceneNote": "説明: けやき坂46 渡邉美穂 写真集撮影場所 住所: 45 Wyndham St, Auckland, 1010, New Zealand",
        "sourceLabel": "fumi Diary 2号店 (けやき坂46)",
        "sourceUrl": "http://blog.livedoor.jp/fumichen2/",
        "tags": [
          "けやき坂46",
          "日向坂46"
        ],
        "images": [
          "https://pub-6d7574c4452b41519ab8adf1541d7f9e.r2.dev/seichi/keyakizaka/3AAjQbR7C2jgtyPRESzCauT6y3bcWE55Dp02Jnaa_87e3d5c0.png"
        ],
        "members": []
      }
    },
    {
      "type": "Feature",
      "geometry": {
        "type": "Point",
        "coordinates": [
          174.762046,
          -36.846394
        ]
      },
      "properties": {
        "id": "fumi-903",
        "name": "Muddy Farmer",
        "category": "雑誌",
        "subcategory": "雑誌",
        "categoryColor": "#7c3aed",
        "address": "",
        "sceneTitle": "Muddy Farmer",
        "sceneNote": "説明: けやき坂46 渡邉美穂 写真集撮影場所 住所: Unit D/80 Wyndham St, Auckland, 1010, New Zealand",
        "sourceLabel": "fumi Diary 2号店 (けやき坂46)",
        "sourceUrl": "http://blog.livedoor.jp/fumichen2/",
        "tags": [
          "けやき坂46",
          "日向坂46"
        ],
        "images": [
          "https://pub-6d7574c4452b41519ab8adf1541d7f9e.r2.dev/seichi/keyakizaka/3AAjQbR4SjScT_d2ti2KvnxCw1MqKQVXcnm6hXMt_7e1f4b9b.png"
        ],
        "members": []
      }
    },
    {
      "type": "Feature",
      "geometry": {
        "type": "Point",
        "coordinates": [
          174.76303,
          -36.843151
        ]
      },
      "properties": {
        "id": "fumi-904",
        "name": "Viaduct Harbour",
        "category": "雑誌",
        "subcategory": "雑誌",
        "categoryColor": "#7c3aed",
        "address": "",
        "sceneTitle": "Viaduct Harbour",
        "sceneNote": "説明: けやき坂46 渡邉美穂 写真集撮影場所 住所: 87-89M Customs St W, Auckland, 1010, New Zealand",
        "sourceLabel": "fumi Diary 2号店 (けやき坂46)",
        "sourceUrl": "http://blog.livedoor.jp/fumichen2/",
        "tags": [
          "けやき坂46",
          "日向坂46"
        ],
        "images": [
          "https://pub-6d7574c4452b41519ab8adf1541d7f9e.r2.dev/seichi/keyakizaka/3AAjQbR7ANU2KyJ9jSjAJdkiCUPMxRAG5TQdCgEt_ce4d204c.png"
        ],
        "members": []
      }
    },
    {
      "type": "Feature",
      "geometry": {
        "type": "Point",
        "coordinates": [
          174.7629414,
          -36.8432303
        ]
      },
      "properties": {
        "id": "fumi-905",
        "name": "Portofino",
        "category": "雑誌",
        "subcategory": "雑誌",
        "categoryColor": "#7c3aed",
        "address": "",
        "sceneTitle": "Portofino",
        "sceneNote": "説明: けやき坂46 渡邉美穂 写真集撮影場所 住所: 87-89M Customs St W, Auckland, 1010, New Zealand",
        "sourceLabel": "fumi Diary 2号店 (けやき坂46)",
        "sourceUrl": "http://blog.livedoor.jp/fumichen2/",
        "tags": [
          "けやき坂46",
          "日向坂46"
        ],
        "images": [
          "https://pub-6d7574c4452b41519ab8adf1541d7f9e.r2.dev/seichi/keyakizaka/3AAjQbR5Wn6K3Aqm6-UJdfpCxhZ2zg5qRrDtAjY5_2ab3a96b.png"
        ],
        "members": []
      }
    },
    {
      "type": "Feature",
      "geometry": {
        "type": "Point",
        "coordinates": [
          138.779828,
          35.485449
        ]
      },
      "properties": {
        "id": "fumi-1667",
        "name": "富士急ハイランド 高飛車",
        "category": "テレビ",
        "subcategory": "テレビ",
        "categoryColor": "#dc2626",
        "address": "",
        "sceneTitle": "富士急ハイランド 高飛車",
        "sceneNote": "説明: 2017.04.30「欅って、書けない?」EP79 けやき坂46リアクションチェック 住所: 〒403-0017 山梨県富士吉田市新西原5-6-1",
        "sourceLabel": "fumi Diary 2号店 (けやき坂46)",
        "sourceUrl": "http://blog.livedoor.jp/fumichen2/",
        "tags": [
          "けやき坂46",
          "日向坂46"
        ],
        "images": [
          "https://pub-6d7574c4452b41519ab8adf1541d7f9e.r2.dev/seichi/keyakizaka/3AAjQbR4zL7HdnKbG0JoPGhUKjDljkVMopYZAg8l_e86e1c56.png",
          "https://pub-6d7574c4452b41519ab8adf1541d7f9e.r2.dev/seichi/keyakizaka/3AAjQbR4EU7HZwLo7XJRN_OzMm7cY1uaxxUfmfEt_5a8d5f7d.png"
        ],
        "members": []
      }
    }
  ]
}