{
  "type": "FeatureCollection",
  "features": [
    {
      "type": "Feature",
      "geometry": {
        "type": "Point",
        "coordinates": [
          130.202027,
          33.593446
        ]
      },
      "properties": {
        "id": "sakumap:100",
        "sourceKey": "sakumap:100",
        "name": "一蘭 一蘭之森 糸島店",
        "category": "Vlog・企画",
        "subcategory": "【一蘭の森】的野・山下の日本ラーメン旅 一蘭の本拠地に潜入 福岡編【第5弾】",
        "categoryColor": "#3b82f6",
        "address": "福岡県糸島市",
        "prefecture": "福岡県",
        "sceneTitle": "【一蘭の森】的野・山下の日本ラーメン旅 一蘭の本拠地に潜入 福岡編【第5弾】",
        "sceneNote": "公開情報に基づく地点情報。撮影・訪問関係の独立した映像検証は未実施。",
        "sourceLabel": "",
        "sourceUrl": "",
        "referenceUrl": "",
        "tags": [
          "櫻坂チャンネル",
          "的野美青",
          "山下瞳月"
        ],
        "members": [
          "的野美青",
          "山下瞳月"
        ],
        "images": [],
        "classification": {
          "category": "Vlog・企画",
          "method": "public-source-reviewed-location",
          "status": "source-referenced"
        }
      }
    },
    {
      "type": "Feature",
      "geometry": {
        "type": "Point",
        "coordinates": [
          131.535407,
          33.258937
        ]
      },
      "properties": {
        "id": "sakumap:125",
        "sourceKey": "sakumap:125",
        "name": "大分マリーンパレス水族館「うみたまご」",
        "category": "番組・イベント",
        "subcategory": "「ラヴィット！」で森田ひかるが訪れた場所",
        "categoryColor": "#f59e0b",
        "address": "大分県大分市神崎3078番地の22",
        "prefecture": "大分県",
        "sceneTitle": "「ラヴィット！」で森田ひかるが訪れた場所",
        "sceneNote": "公開情報に基づく地点情報。撮影・訪問関係の独立した映像検証は未実施。",
        "sourceLabel": "",
        "sourceUrl": "",
        "referenceUrl": "",
        "tags": [],
        "members": [],
        "images": [],
        "classification": {
          "category": "番組・イベント",
          "method": "public-source-reviewed-location",
          "status": "source-referenced"
        }
      }
    },
    {
      "type": "Feature",
      "geometry": {
        "type": "Point",
        "coordinates": [
          134.636907,
          34.231518
        ]
      },
      "properties": {
        "id": "sakumap:132",
        "sourceKey": "sakumap:132",
        "name": "大塚国際美術館",
        "category": "Vlog・企画",
        "subcategory": "櫻坂チャンネル 【Vlog】なぎあいりが初上陸の徳島でデート気分！",
        "categoryColor": "#3b82f6",
        "address": "徳島県鳴門市福池鳴門公園線",
        "prefecture": "徳島県",
        "sceneTitle": "櫻坂チャンネル 【Vlog】なぎあいりが初上陸の徳島でデート気分！",
        "sceneNote": "公開情報に基づく地点情報。撮影・訪問関係の独立した映像検証は未実施。",
        "sourceLabel": "",
        "sourceUrl": "",
        "referenceUrl": "",
        "tags": [
          "小島凪紗",
          "谷口愛季",
          "田村保乃",
          "櫻坂チャンネル"
        ],
        "members": [
          "小島凪紗",
          "谷口愛季",
          "田村保乃"
        ],
        "images": [],
        "classification": {
          "category": "Vlog・企画",
          "method": "public-source-reviewed-location",
          "status": "source-referenced"
        }
      }
    },
    {
      "type": "Feature",
      "geometry": {
        "type": "Point",
        "coordinates": [
          134.642107,
          34.23617
        ]
      },
      "properties": {
        "id": "sakumap:134",
        "sourceKey": "sakumap:134",
        "name": "大鳴門橋遊歩道 渦の道",
        "category": "Vlog・企画",
        "subcategory": "櫻坂チャンネル 【Vlog】なぎあいりが初上陸の徳島でデート気分！",
        "categoryColor": "#3b82f6",
        "address": "徳島県鳴門市",
        "prefecture": "徳島県",
        "sceneTitle": "櫻坂チャンネル 【Vlog】なぎあいりが初上陸の徳島でデート気分！",
        "sceneNote": "公開情報に基づく地点情報。撮影・訪問関係の独立した映像検証は未実施。",
        "sourceLabel": "",
        "sourceUrl": "",
        "referenceUrl": "",
        "tags": [
          "小島凪紗",
          "谷口愛季",
          "櫻坂チャンネル"
        ],
        "members": [
          "小島凪紗",
          "谷口愛季"
        ],
        "images": [],
        "classification": {
          "category": "Vlog・企画",
          "method": "public-source-reviewed-location",
          "status": "source-referenced"
        }
      }
    },
    {
      "type": "Feature",
      "geometry": {
        "type": "Point",
        "coordinates": [
          133.807871,
          34.312429
        ]
      },
      "properties": {
        "id": "sakumap:162",
        "sourceKey": "sakumap:162",
        "name": "四国水族館",
        "category": "Vlog・企画",
        "subcategory": "櫻坂チャンネル【帰省】櫻坂46の2026年始の過ごし方Vlog！【PART2】",
        "categoryColor": "#3b82f6",
        "address": "香川県宇多津町",
        "prefecture": "香川県",
        "sceneTitle": "櫻坂チャンネル【帰省】櫻坂46の2026年始の過ごし方Vlog！【PART2】",
        "sceneNote": "公開情報に基づく地点情報。撮影・訪問関係の独立した映像検証は未実施。",
        "sourceLabel": "",
        "sourceUrl": "",
        "referenceUrl": "",
        "tags": [
          "向井純葉",
          "櫻坂チャンネル"
        ],
        "members": [
          "向井純葉"
        ],
        "images": [],
        "classification": {
          "category": "Vlog・企画",
          "method": "public-source-reviewed-location",
          "status": "source-referenced"
        }
      }
    },
    {
      "type": "Feature",
      "geometry": {
        "type": "Point",
        "coordinates": [
          138.884857,
          36.225585
        ]
      },
      "properties": {
        "id": "sakumap:221",
        "sourceKey": "sakumap:221",
        "name": "群馬サファリパーク",
        "category": "Vlog・企画",
        "subcategory": "【ワニ食す】きら＆ひかるのサファリパークデート",
        "categoryColor": "#3b82f6",
        "address": "群馬県富岡市岡本１",
        "prefecture": "群馬県",
        "sceneTitle": "【ワニ食す】きら＆ひかるのサファリパークデート",
        "sceneNote": "公開情報に基づく地点情報。撮影・訪問関係の独立した映像検証は未実施。",
        "sourceLabel": "",
        "sourceUrl": "",
        "referenceUrl": "",
        "tags": [
          "櫻坂チャンネル",
          "森田ひかる",
          "増本綺良"
        ],
        "members": [
          "森田ひかる",
          "増本綺良"
        ],
        "images": [],
        "classification": {
          "category": "Vlog・企画",
          "method": "public-source-reviewed-location",
          "status": "source-referenced"
        }
      }
    },
    {
      "type": "Feature",
      "geometry": {
        "type": "Point",
        "coordinates": [
          136.331439,
          35.049357
        ]
      },
      "properties": {
        "id": "sakumap:243",
        "sourceKey": "sakumap:243",
        "name": "岩魚の里　永源寺グリーンランド",
        "category": "番組・イベント",
        "subcategory": "そこ曲がったら櫻坂?　武元プレゼンツ！滋賀大満喫ツアー！",
        "categoryColor": "#f59e0b",
        "address": "〒527-0214 滋賀県東近江市甲津畑町６７",
        "prefecture": "滋賀県",
        "sceneTitle": "そこ曲がったら櫻坂?　武元プレゼンツ！滋賀大満喫ツアー！",
        "sceneNote": "公開情報に基づく地点情報。撮影・訪問関係の独立した映像検証は未実施。",
        "sourceLabel": "",
        "sourceUrl": "",
        "referenceUrl": "",
        "tags": [],
        "members": [],
        "images": [],
        "classification": {
          "category": "番組・イベント",
          "method": "public-source-reviewed-location",
          "status": "source-referenced"
        }
      }
    },
    {
      "type": "Feature",
      "geometry": {
        "type": "Point",
        "coordinates": [
          131.330738,
          34.285162
        ]
      },
      "properties": {
        "id": "sakumap:289",
        "sourceKey": "sakumap:289",
        "name": "秋吉台自然動物公園サファリランド",
        "category": "Vlog・企画",
        "subcategory": "2026年お正月Vlogでの訪問地",
        "categoryColor": "#3b82f6",
        "address": "山口県美祢市佐山銭屋美祢線",
        "prefecture": "山口県",
        "sceneTitle": "2026年お正月Vlogでの訪問地",
        "sceneNote": "公開情報に基づく地点情報。撮影・訪問関係の独立した映像検証は未実施。",
        "sourceLabel": "",
        "sourceUrl": "",
        "referenceUrl": "",
        "tags": [
          "森田ひかる"
        ],
        "members": [
          "森田ひかる"
        ],
        "images": [],
        "classification": {
          "category": "Vlog・企画",
          "method": "public-source-reviewed-location",
          "status": "source-referenced"
        }
      }
    },
    {
      "type": "Feature",
      "geometry": {
        "type": "Point",
        "coordinates": [
          130.514359,
          33.831091
        ]
      },
      "properties": {
        "id": "sakumap:306",
        "sourceKey": "sakumap:306",
        "name": "宗像大社辺津宮",
        "category": "Vlog・企画",
        "subcategory": "2026年年始vlogロケ地",
        "categoryColor": "#3b82f6",
        "address": "福岡県宗像市宗像玄海線",
        "prefecture": "福岡県",
        "sceneTitle": "2026年年始vlogロケ地",
        "sceneNote": "公開情報に基づく地点情報。撮影・訪問関係の独立した映像検証は未実施。",
        "sourceLabel": "",
        "sourceUrl": "",
        "referenceUrl": "",
        "tags": [
          "vlog"
        ],
        "members": [],
        "images": [],
        "classification": {
          "category": "Vlog・企画",
          "method": "public-source-reviewed-location",
          "status": "source-referenced"
        }
      }
    },
    {
      "type": "Feature",
      "geometry": {
        "type": "Point",
        "coordinates": [
          138.980556,
          35.152545
        ]
      },
      "properties": {
        "id": "sakumap:307",
        "sourceKey": "sakumap:307",
        "name": "三島スカイウォーク",
        "category": "番組・イベント",
        "subcategory": "満天☆青空レストラン",
        "categoryColor": "#f59e0b",
        "address": "静岡県三島市",
        "prefecture": "静岡県",
        "sceneTitle": "満天☆青空レストラン",
        "sceneNote": "公開情報に基づく地点情報。撮影・訪問関係の独立した映像検証は未実施。",
        "sourceLabel": "",
        "sourceUrl": "",
        "referenceUrl": "",
        "tags": [
          "田村保乃",
          "大園玲",
          "ビール",
          "お酒",
          "満天☆青空レストラン"
        ],
        "members": [
          "田村保乃",
          "大園玲"
        ],
        "images": [],
        "classification": {
          "category": "番組・イベント",
          "method": "public-source-reviewed-location",
          "status": "source-referenced"
        }
      }
    },
    {
      "type": "Feature",
      "geometry": {
        "type": "Point",
        "coordinates": [
          139.740334,
          36.374485
        ]
      },
      "properties": {
        "id": "sakumap:319",
        "sourceKey": "sakumap:319",
        "name": "岩下の新生姜ミュージアム",
        "category": "Vlog・企画",
        "subcategory": "櫻坂チャンネル「岩下の新生姜ミュージアムで松田とイワシカちゃんが初対面！」",
        "categoryColor": "#3b82f6",
        "address": "栃木県栃木市本町1-25",
        "prefecture": "栃木県",
        "sceneTitle": "櫻坂チャンネル「岩下の新生姜ミュージアムで松田とイワシカちゃんが初対面！」",
        "sceneNote": "公開情報に基づく地点情報。撮影・訪問関係の独立した映像検証は未実施。",
        "sourceLabel": "",
        "sourceUrl": "",
        "referenceUrl": "",
        "tags": [
          "櫻坂チャンネル",
          "松田里奈"
        ],
        "members": [
          "松田里奈"
        ],
        "images": [],
        "classification": {
          "category": "Vlog・企画",
          "method": "public-source-reviewed-location",
          "status": "source-referenced"
        }
      }
    },
    {
      "type": "Feature",
      "geometry": {
        "type": "Point",
        "coordinates": [
          139.314269,
          37.880602
        ]
      },
      "properties": {
        "id": "sakumap:340",
        "sourceKey": "sakumap:340",
        "name": "新潟月岡温泉 白玉の湯 華鳳",
        "category": "Vlog・企画",
        "subcategory": "【櫻旅】田村保乃・中嶋優月と、鉄道で旅しよう。【新潟編】",
        "categoryColor": "#3b82f6",
        "address": "新潟県新発田市月岡温泉神明橋",
        "prefecture": "新潟県",
        "sceneTitle": "【櫻旅】田村保乃・中嶋優月と、鉄道で旅しよう。【新潟編】",
        "sceneNote": "公開情報に基づく地点情報。撮影・訪問関係の独立した映像検証は未実施。",
        "sourceLabel": "",
        "sourceUrl": "",
        "referenceUrl": "",
        "tags": [
          "田村 保乃",
          "中嶋 優月",
          "櫻坂チャンネル",
          "櫻旅",
          "JR東日本",
          "コラボ"
        ],
        "members": [
          "田村保乃",
          "中嶋優月"
        ],
        "images": [],
        "classification": {
          "category": "Vlog・企画",
          "method": "public-source-reviewed-location",
          "status": "source-referenced"
        }
      }
    },
    {
      "type": "Feature",
      "geometry": {
        "type": "Point",
        "coordinates": [
          139.311054,
          37.878769
        ]
      },
      "properties": {
        "id": "sakumap:341",
        "sourceKey": "sakumap:341",
        "name": "源泉の杜",
        "category": "Vlog・企画",
        "subcategory": "【櫻旅】田村保乃・中嶋優月と、鉄道で旅しよう。【新潟編】",
        "categoryColor": "#3b82f6",
        "address": "新潟県新発田市月岡温泉小唄橋",
        "prefecture": "新潟県",
        "sceneTitle": "【櫻旅】田村保乃・中嶋優月と、鉄道で旅しよう。【新潟編】",
        "sceneNote": "公開情報に基づく地点情報。撮影・訪問関係の独立した映像検証は未実施。",
        "sourceLabel": "",
        "sourceUrl": "",
        "referenceUrl": "",
        "tags": [
          "田村 保乃",
          "中嶋 優月",
          "櫻坂チャンネル",
          "櫻旅",
          "JR東日本",
          "コラボ"
        ],
        "members": [
          "田村保乃",
          "中嶋優月"
        ],
        "images": [],
        "classification": {
          "category": "Vlog・企画",
          "method": "public-source-reviewed-location",
          "status": "source-referenced"
        }
      }
    },
    {
      "type": "Feature",
      "geometry": {
        "type": "Point",
        "coordinates": [
          139.311234,
          37.878969
        ]
      },
      "properties": {
        "id": "sakumap:342",
        "sourceKey": "sakumap:342",
        "name": "月岡ドーナツ",
        "category": "Vlog・企画",
        "subcategory": "【櫻旅】田村保乃・中嶋優月と、鉄道で旅しよう。【新潟編】",
        "categoryColor": "#3b82f6",
        "address": "新潟県新発田市月岡温泉小唄橋",
        "prefecture": "新潟県",
        "sceneTitle": "【櫻旅】田村保乃・中嶋優月と、鉄道で旅しよう。【新潟編】",
        "sceneNote": "公開情報に基づく地点情報。撮影・訪問関係の独立した映像検証は未実施。",
        "sourceLabel": "",
        "sourceUrl": "",
        "referenceUrl": "",
        "tags": [
          "田村 保乃",
          "中嶋 優月",
          "櫻坂チャンネル",
          "櫻旅",
          "JR東日本",
          "コラボ"
        ],
        "members": [
          "田村保乃",
          "中嶋優月"
        ],
        "images": [],
        "classification": {
          "category": "Vlog・企画",
          "method": "public-source-reviewed-location",
          "status": "source-referenced"
        }
      }
    },
    {
      "type": "Feature",
      "geometry": {
        "type": "Point",
        "coordinates": [
          139.308786,
          37.881421
        ]
      },
      "properties": {
        "id": "sakumap:343",
        "sourceKey": "sakumap:343",
        "name": "あしゆ湯足美",
        "category": "Vlog・企画",
        "subcategory": "【櫻旅】田村保乃・中嶋優月と、鉄道で旅しよう。【新潟編】",
        "categoryColor": "#3b82f6",
        "address": "新潟県新発田市月岡温泉",
        "prefecture": "新潟県",
        "sceneTitle": "【櫻旅】田村保乃・中嶋優月と、鉄道で旅しよう。【新潟編】",
        "sceneNote": "公開情報に基づく地点情報。撮影・訪問関係の独立した映像検証は未実施。",
        "sourceLabel": "",
        "sourceUrl": "",
        "referenceUrl": "",
        "tags": [
          "田村 保乃",
          "中嶋 優月",
          "櫻坂チャンネル",
          "櫻旅",
          "JR東日本",
          "コラボ"
        ],
        "members": [
          "田村保乃",
          "中嶋優月"
        ],
        "images": [],
        "classification": {
          "category": "Vlog・企画",
          "method": "public-source-reviewed-location",
          "status": "source-referenced"
        }
      }
    },
    {
      "type": "Feature",
      "geometry": {
        "type": "Point",
        "coordinates": [
          138.296324,
          37.898118
        ]
      },
      "properties": {
        "id": "sakumap:349",
        "sourceKey": "sakumap:349",
        "name": "佐渡西三川ゴールドパーク",
        "category": "Vlog・企画",
        "subcategory": "【櫻旅】田村保乃・中嶋優月と、鉄道で旅しよう。【新潟編】",
        "categoryColor": "#3b82f6",
        "address": "新潟県佐渡市西三川静平西三川線",
        "prefecture": "新潟県",
        "sceneTitle": "【櫻旅】田村保乃・中嶋優月と、鉄道で旅しよう。【新潟編】",
        "sceneNote": "公開情報に基づく地点情報。撮影・訪問関係の独立した映像検証は未実施。",
        "sourceLabel": "",
        "sourceUrl": "",
        "referenceUrl": "",
        "tags": [
          "田村 保乃",
          "中嶋 優月",
          "櫻坂チャンネル",
          "櫻旅",
          "JR東日本",
          "コラボ"
        ],
        "members": [
          "田村保乃",
          "中嶋優月"
        ],
        "images": [],
        "classification": {
          "category": "Vlog・企画",
          "method": "public-source-reviewed-location",
          "status": "source-referenced"
        }
      }
    },
    {
      "type": "Feature",
      "geometry": {
        "type": "Point",
        "coordinates": [
          138.363638,
          38.017118
        ]
      },
      "properties": {
        "id": "sakumap:351",
        "sourceKey": "sakumap:351",
        "name": "佐渡乳業直売所 みるく・ぽっと",
        "category": "Blog・MSG",
        "subcategory": "櫻旅（新潟編）オフショット",
        "categoryColor": "#8b5cf6",
        "address": "新潟県佐渡市",
        "prefecture": "新潟県",
        "sceneTitle": "櫻旅（新潟編）オフショット",
        "sceneNote": "公開情報に基づく地点情報。撮影・訪問関係の独立した映像検証は未実施。",
        "sourceLabel": "",
        "sourceUrl": "",
        "referenceUrl": "",
        "tags": [
          "田村 保乃",
          "中嶋 優月",
          "櫻坂チャンネル",
          "櫻旅",
          "JR東日本",
          "コラボ",
          "オフショット",
          "honogram",
          "ゆづのいんすた"
        ],
        "members": [
          "田村保乃",
          "中嶋優月"
        ],
        "images": [],
        "classification": {
          "category": "Blog・MSG",
          "method": "public-source-reviewed-location",
          "status": "source-referenced"
        }
      }
    },
    {
      "type": "Feature",
      "geometry": {
        "type": "Point",
        "coordinates": [
          139.464577,
          35.968314
        ]
      },
      "properties": {
        "id": "sakumap:369",
        "sourceKey": "sakumap:369",
        "name": "金笛しょうゆパーク",
        "category": "番組・イベント",
        "subcategory": "2026.8.9 そこさく「エグいね埼玉」",
        "categoryColor": "#f59e0b",
        "address": "埼玉県川島町上伊草坂戸線",
        "prefecture": "埼玉県",
        "sceneTitle": "2026.8.9 そこさく「エグいね埼玉」",
        "sceneNote": "公開情報に基づく地点情報。撮影・訪問関係の独立した映像検証は未実施。",
        "sourceLabel": "",
        "sourceUrl": "",
        "referenceUrl": "",
        "tags": [
          "村山 美羽",
          "そこさく",
          "そこ曲がったら櫻坂"
        ],
        "members": [
          "村山美羽"
        ],
        "images": [],
        "classification": {
          "category": "番組・イベント",
          "method": "public-source-reviewed-location",
          "status": "source-referenced"
        }
      }
    },
    {
      "type": "Feature",
      "geometry": {
        "type": "Point",
        "coordinates": [
          138.5561,
          35.769428
        ]
      },
      "properties": {
        "id": "sakumap:58",
        "sourceKey": "sakumap:58",
        "name": "金櫻神社",
        "category": "番組・イベント",
        "subcategory": "1st Single ヒット祈願で訪れた神社",
        "categoryColor": "#f59e0b",
        "address": "山梨県甲府市御岳町2347",
        "prefecture": "山梨県",
        "sceneTitle": "1st Single ヒット祈願で訪れた神社",
        "sceneNote": "公開情報に基づく地点情報。撮影・訪問関係の独立した映像検証は未実施。",
        "sourceLabel": "",
        "sourceUrl": "",
        "referenceUrl": "",
        "tags": [],
        "members": [],
        "images": [],
        "classification": {
          "category": "番組・イベント",
          "method": "public-source-reviewed-location",
          "status": "source-referenced"
        }
      }
    },
    {
      "type": "Feature",
      "geometry": {
        "type": "Point",
        "coordinates": [
          138.014941,
          34.76105
        ]
      },
      "properties": {
        "id": "sakumap:90",
        "sourceKey": "sakumap:90",
        "name": "掛川花鳥園",
        "category": "Vlog・企画",
        "subcategory": "【天国】鳥マニア浅井が掛川花鳥園で鳥まみれ！櫻坂46にも遭遇！？",
        "categoryColor": "#3b82f6",
        "address": "静岡県掛川市杉谷一丁目東名高速道路",
        "prefecture": "静岡県",
        "sceneTitle": "【天国】鳥マニア浅井が掛川花鳥園で鳥まみれ！櫻坂46にも遭遇！？",
        "sceneNote": "公開情報に基づく地点情報。撮影・訪問関係の独立した映像検証は未実施。",
        "sourceLabel": "",
        "sourceUrl": "",
        "referenceUrl": "",
        "tags": [
          "櫻坂チャンネル",
          "浅井恋乃未"
        ],
        "members": [
          "浅井恋乃未"
        ],
        "images": [],
        "classification": {
          "category": "Vlog・企画",
          "method": "public-source-reviewed-location",
          "status": "source-referenced"
        }
      }
    }
  ]
}
